PROGRESS-MS 26          
1 58961U 24029A   24074.44882727  .00015091  00000+0  27264-3 0  9994
2 58961  51.6389  64.9445 0006153   3.6349 356.4683 15.49908421  3938
HBTSS-SV2               
1 58955U 24028A   24074.86742133  .00000079  00000+0  17621-3 0  9994
2 58955  39.9894 230.4175 0008742 174.2442 185.8406 13.70239011  3971
RAPTOR4                 
1 58956U 24028B   24074.86643324 -.00000008  00000+0  78766-4 0  9998
2 58956  39.9892 230.4070 0008569 173.9203 186.1649 13.70282759  3961
RAPTOR1                 
1 58957U 24028C   24074.86543808 -.00000001  00000+0  85850-4 0  9990
2 58957  39.9886 230.4078 0008618 175.3918 184.6909 13.70329844  3966
RAPTOR3                 
1 58958U 24028D   24074.93725268 -.00000014  00000+0  71319-4 0  9990
2 58958  39.9895 230.0603 0008619 177.5754 182.5036 13.70380504  3979
RAPTOR2                 
1 58959U 24028E   24074.86334779 -.00000005  00000+0  81696-4 0  9995
2 58959  39.9890 230.3954 0008625 178.6705 181.4065 13.70428967  3967
HBTSS-SV1               
1 58960U 24028F   24074.86135075  .00000087  00000+0  18391-3 0  9995
2 58960  39.9891 230.3802 0009439 181.7655 178.3060 13.70526833  3966
FALCON 9 R/B            
1 58964U 24030B   24046.27792824 -.00014702  00000+0  00000+0 0  9991
2 58964  28.5100  65.0800 9704700 239.9600   5.0000  0.08200507    02
STARLINK-31373          
1 58965U 24031A   24075.17756189  .00007151  00000+0  27053-3 0  9998
2 58965  53.1612  61.5299 0001954 120.5763 239.5429 15.28029435  5613
STARLINK-31449          
1 58966U 24031B   24075.17723011  .00000814  00000+0  42067-4 0  9999
2 58966  53.1606  61.5274 0001843 114.1485 245.9708 15.28011330  5613
STARLINK-31314          
1 58967U 24031C   24075.17288739  .00058675  00000+0  21129-2 0  9995
2 58967  53.1614  61.5020 0001858 122.8168 237.3011 15.28040960  5615
STARLINK-31356          
1 58968U 24031D   24075.19584876  .00038062  00000+0  13793-2 0  9995
2 58968  53.1601  60.9362 0001172  71.8716 288.2411 15.28030978  5577
STARLINK-31335          
1 58969U 24031E   24075.16822636  .00022455  00000+0  82135-3 0  9998
2 58969  53.1629  61.4717 0002063 122.0621 238.0579 15.28001627  5692
STARLINK-31368          
1 58970U 24031F   24072.22452005  .00028963  00000+0  10536-2 0  9998
2 58970  53.1601  75.0961 0001644  94.6285 265.4903 15.28039565  5169
STARLINK-31333          
1 58971U 24031G   24075.16352902  .00000810  00000+0  41926-4 0  9990
2 58971  53.1628  61.4416 0001999 109.4954 250.6262 15.28019332  5618
STARLINK-31351          
1 58972U 24031H   24075.16319526  .00001891  00000+0  80925-4 0  9998
2 58972  53.1626  61.4424 0001508  84.3237 275.7935 15.28014892  5652
STARLINK-31365          
1 58973U 24031J   24072.28056359 -.00001582  00000+0 -44415-4 0  9994
2 58973  53.1608  74.7321 0001240 106.0149 254.0988 15.28040801  5177
STARLINK-31361          
1 58974U 24031K   24075.22427049  .00015177  00000+0  56099-3 0  9993
2 58974  53.1632  61.1076 0001690  20.7228 339.3841 15.27930898  5629
STARLINK-31369          
1 58975U 24031L   24075.25001157 -.00012713  00000+0 -44735-3 0  9994
2 58975  53.1610  60.9410 0001460  70.8044  96.7820 15.28001717  5634
STARLINK-31324          
1 58976U 24031M   24072.40672183  .00056312  00000+0  20292-2 0  9994
2 58976  53.1610  74.0985 0001396 105.1740 254.9414 15.28037510  5177
STARLINK-31358          
1 58977U 24031N   24074.49000564  .00007480  00000+0  17134-3 0  9998
2 58977  53.1616  62.9144 0001456  92.6588 267.4585 15.43850189  5512
STARLINK-31355          
1 58978U 24031P   24075.21456893  .00045436  00000+0  16432-2 0  9992
2 58978  53.1615  61.0491 0001406  75.2309 284.8846 15.28015710  5654
STARLINK-31380          
1 58979U 24031Q   24075.21021235  .00034355  00000+0  12468-2 0  9994
2 58979  53.1615  61.0233 0002101 146.3822 213.7312 15.28030383  5621
STARLINK-31353          
1 58980U 24031R   24072.58922806 -.01022216  00000+0 -38823-1 0  9995
2 58980  53.1606  73.1039 0002675  31.4330 328.6830 15.29071183  5204
STARLINK-31339          
1 58981U 24031S   24075.20988966  .00057674  00000+0  20786-2 0  9990
2 58981  53.1608  61.0195 0001421 129.9696 230.1429 15.28021691  5627
STARLINK-31360          
1 58982U 24031T   24072.52350490 -.01078627  00000+0 -40874-1 0  9991
2 58982  53.1605  73.4052 0001153  86.5327 273.5806 15.29305750  5199
STARLINK-31384          
1 58983U 24031U   24075.20085692  .00033684  00000+0  12228-2 0  9993
2 58983  53.1597  60.9617 0002019 145.0456 215.0677 15.28031175  5625
STARLINK-31379          
1 58984U 24031V   24075.20051912  .00049811  00000+0  17984-2 0  9995
2 58984  53.1596  60.9597 0001238 138.7598 221.3496 15.28029526  5626
STARLINK-31385          
1 58985U 24031W   24075.20641813 -.00799400  00000+0 -17280-1 0  9997
2 58985  53.1614  58.1167 0001805  70.1895 289.9307 15.46494332  5665
STARLINK-31229          
1 58986U 24031X   24075.19617813  .00010891  00000+0  40514-3 0  9995
2 58986  53.1593  60.9326 0001032  47.1145 312.9941 15.28032109  5621
