OBJECT_NAME,OBJECT_ID,EPOCH,MEAN_MOTION,ECCENTRICITY,INCLINATION,RA_OF_ASC_NODE,ARG_OF_PERICENTER,MEAN_ANOMALY,EPHEMERIS_TYPE,CLASSIFICATION_TYPE,NORAD_CAT_ID,ELEMENT_SET_NO,REV_AT_EPOCH,BSTAR,MEAN_MOTION_DOT,MEAN_MOTION_DDOT
HBTSS-SV2,2024-028A,2024-03-14T20:49:05.202912,13.70239011,0.0008742,39.9894,230.4175,174.2442,185.8406,0,U,58955,999,397,0.00017621,7.9e-07,0
RAPTOR4,2024-028B,2024-03-14T20:47:39.831936,13.70282759,0.0008569,39.9892,230.407,173.9203,186.1649,0,U,58956,999,396,7.8766e-05,-8e-08,0
RAPTOR1,2024-028C,2024-03-14T20:46:13.850112,13.70329844,0.0008618,39.9886,230.4078,175.3918,184.6909,0,U,58957,999,396,8.585e-05,-1e-08,0
RAPTOR3,2024-028D,2024-03-14T22:29:38.631552,13.70380504,0.0008619,39.9895,230.0603,177.5754,182.5036,0,U,58958,999,397,7.1319e-05,-1.4e-07,0
RAPTOR2,2024-028E,2024-03-14T20:43:13.249056,13.70428967,0.0008625,39.989,230.3954,178.6705,181.4065,0,U,58959,999,396,8.1696e-05,-5e-08,0
HBTSS-SV1,2024-028F,2024-03-14T20:40:20.704800,13.70526833,0.0009439,39.9891,230.3802,181.7655,178.306,0,U,58960,999,396,0.00018391,8.7e-07,0
PROGRESS-MS 26,2024-029A,2024-03-14T10:46:18.676128,15.49908421,0.0006153,51.6389,64.9445,3.6349,356.4683,0,U,58961,999,393,0.00027264,0.00015091,0
FALCON 9 R/B,2024-030B,2024-02-15T06:40:12.999936,0.08200507,0.97047,28.51,65.08,239.96,5,0,U,58964,999,0,0,-0.00014702,0
STARLINK-31373,2024-031A,2024-03-15T04:15:41.347296,15.28029435,0.0001954,53.1612,61.5299,120.5763,239.5429,0,U,58965,999,561,0.00027053,7.151e-05,0
STARLINK-31449,2024-031B,2024-03-15T04:15:12.681504,15.2801133,0.0001843,53.1606,61.5274,114.1485,245.9708,0,U,58966,999,561,4.2067e-05,8.14e-06,0
STARLINK-31314,2024-031C,2024-03-15T04:08:57.470496,15.2804096,0.0001858,53.1614,61.502,122.8168,237.3011,0,U,58967,999,561,0.0021129,0.00058675,0
STARLINK-31356,2024-031D,2024-03-15T04:42:01.332864,15.28030978,0.0001172,53.1601,60.9362,71.8716,288.2411,0,U,58968,999,557,0.0013793,0.00038062,0
STARLINK-31335,2024-031E,2024-03-15T04:02:14.757504,15.28001627,0.0002063,53.1629,61.4717,122.0621,238.0579,0,U,58969,999,569,0.00082135,0.00022455,0
STARLINK-31368,2024-031F,2024-03-12T05:23:18.532320,15.28039565,0.0001644,53.1601,75.0961,94.6285,265.4903,0,U,58970,999,516,0.0010536,0.00028963,0
STARLINK-31333,2024-031G,2024-03-15T03:55:28.907328,15.28019332,0.0001999,53.1628,61.4416,109.4954,250.6262,0,U,58971,999,561,4.1926e-05,8.1e-06,0
STARLINK-31351,2024-031H,2024-03-15T03:55:00.070464,15.28014892,0.0001508,53.1626,61.4424,84.3237,275.7935,0,U,58972,999,565,8.0925e-05,1.891e-05,0
STARLINK-31365,2024-031J,2024-03-12T06:44:00.694176,15.28040801,0.000124,53.1608,74.7321,106.0149,254.0988,0,U,58973,999,517,-4.4415e-05,-1.582e-05,0
STARLINK-31361,2024-031K,2024-03-15T05:22:56.970336,15.27930898,0.000169,53.1632,61.1076,20.7228,339.3841,0,U,58974,999,562,0.00056099,0.00015177,0
STARLINK-31369,2024-031L,2024-03-15T06:00:00.999648,15.28001717,0.000146,53.161,60.941,70.8044,96.782,0,U,58975,999,563,-0.00044735,-0.00012713,0
STARLINK-31324,2024-031M,2024-03-12T09:45:40.766112,15.2803751,0.0001396,53.161,74.0985,105.174,254.9414,0,U,58976,999,517,0.0020292,0.00056312,0
STARLINK-31358,2024-031N,2024-03-14T11:45:36.487296,15.43850189,0.0001456,53.1616,62.9144,92.6588,267.4585,0,U,58977,999,551,0.00017134,7.48e-05,0
STARLINK-31355,2024-031P,2024-03-15T05:08:58.755552,15.2801571,0.0001406,53.1615,61.0491,75.2309,284.8846,0,U,58978,999,565,0.0016432,0.00045436,0
STARLINK-31380,2024-031Q,2024-03-15T05:02:42.347040,15.28030383,0.0002101,53.1615,61.0233,146.3822,213.7312,0,U,58979,999,562,0.0012468,0.00034355,0
STARLINK-31353,2024-031R,2024-03-12T14:08:29.304384,15.29071183,0.0002675,53.1606,73.1039,31.433,328.683,0,U,58980,999,520,-0.038823,-0.01022216,0
STARLINK-31339,2024-031S,2024-03-15T05:02:14.466624,15.28021691,0.0001421,53.1608,61.0195,129.9696,230.1429,0,U,58981,999,562,0.0020786,0.00057674,0
STARLINK-31360,2024-031T,2024-03-12T12:33:50.823360,15.2930575,0.0001153,53.1605,73.4052,86.5327,273.5806,0,U,58982,999,519,-0.040874,-0.01078627,0
STARLINK-31384,2024-031U,2024-03-15T04:49:14.037888,15.28031175,0.0002019,53.1597,60.9617,145.0456,215.0677,0,U,58983,999,562,0.0012228,0.00033684,0
STARLINK-31379,2024-031V,2024-03-15T04:48:44.851968,15.28029526,0.0001238,53.1596,60.9597,138.7598,221.3496,0,U,58984,999,562,0.0017984,0.00049811,0
STARLINK-31385,2024-031W,2024-03-15T04:57:14.526432,15.46494332,0.0001805,53.1614,58.1167,70.1895,289.9307,0,U,58985,999,566,-0.01728,-0.007994,0
STARLINK-31229,2024-031X,2024-03-15T04:42:29.790432,15.28032109,0.0001032,53.1593,60.9326,47.1145,312.9941,0,U,58986,999,562,0.00040514,0.00010891,0
